[{"OBJECT_NAME":"STARLINK-30233","OBJECT_ID":"2023-096N","EPOCH":"2026-03-09T22:00:01.999584","MEAN_MOTION":15.15156018,"ECCENTRICITY":0.00020685,"INCLINATION":42.9996,"RA_OF_ASC_NODE":220.9752,"ARG_OF_PERICENTER":272.9795,"MEAN_ANOMALY":48.4201,"EPHEMERIS_TYPE":0,"CLASSIFICATION_TYPE":"U","NORAD_CAT_ID":57302,"ELEMENT_SET_NO":999,"REV_AT_EPOCH":577,"BSTAR":0.0050475761,"MEAN_MOTION_DOT":0.00097471,"MEAN_MOTION_DDOT":0},{"OBJECT_NAME":"DELTA 1 DEB","OBJECT_ID":"1977-065CB","EPOCH":"2026-03-09T00:48:12.317760","MEAN_MOTION":13.97995904,"ECCENTRICITY":0.05328634,"INCLINATION":29.0786,"RA_OF_ASC_NODE":354.7404,"ARG_OF_PERICENTER":16.4646,"MEAN_ANOMALY":345.2542,"EPHEMERIS_TYPE":0,"CLASSIFICATION_TYPE":"U","NORAD_CAT_ID":10250,"ELEMENT_SET_NO":999,"REV_AT_EPOCH":29411,"BSTAR":0.0013731025,"MEAN_MOTION_DOT":6.972e-5,"MEAN_MOTION_DDOT":0}]
